start=new Date('2022-07-31T00:00:00.000Z').valueOf();
sats=[{"LAUNCH_DATE":"2020-10-18","CLASSIFICATION_TYPE":"U","ELEMENT_SET_NO":"999","RA_OF_ASC_NODE":"17.5638","APOAPSIS":"548.178","GP_ID":"209226844","FILE":"3525638","MEAN_MOTION":"15.06397227","REV_AT_EPOCH":"9878","MEAN_ELEMENT_THEORY":"SGP4","PERIOD":"95.592","MEAN_MOTION_DOT":"0.00000495","ARG_OF_PERICENTER":"69.6743","PERIAPSIS":"546.266","TIME_SYSTEM":"UTC","TLE_LINE2":"2 46679  53.0552  17.5638 0001380  69.6743 290.4395 15.06397227 98787","EPHEMERIS_TYPE":"0","OBJECT_NAME":"STARLINK-1773","OBJECT_TYPE":"PAYLOAD","CENTER_NAME":"EARTH","MEAN_MOTION_DDOT":"0.0000000000000","COUNTRY_CODE":"US","SEMIMAJOR_AXIS":"6925.357","NORAD_CAT_ID":"46679","BSTAR":"0.00005213300000","EPOCH":"2022-07-30T20:47:02.998752","OBJECT_ID":"2020-073K","TLE_LINE1":"1 46679U 20073K   22211.86600693  .00000495  00000-0  52133-4 0  9996","DECAY_DATE":null,"ECCENTRICITY":"0.00013800","REF_FRAME":"TEME","SITE":"AFETR","RCS_SIZE":"LARGE","MEAN_ANOMALY":"290.4395","INCLINATION":"53.0552"},{"ELEMENT_SET_NO":"999","CLASSIFICATION_TYPE":"U","LAUNCH_DATE":"2020-10-18","APOAPSIS":"548.412","RA_OF_ASC_NODE":"53.1569","MEAN_MOTION_DOT":"-0.00006650","PERIOD":"95.591","MEAN_ELEMENT_THEORY":"SGP4","GP_ID":"209225592","FILE":"3525638","MEAN_MOTION":"15.06419507","REV_AT_EPOCH":"9827","TIME_SYSTEM":"UTC","PERIAPSIS":"545.895","ARG_OF_PERICENTER":"76.4388","TLE_LINE2":"2 46680  53.0564  53.1569 0001817  76.4388 283.6803 15.06419507 98275","OBJECT_TYPE":"PAYLOAD","OBJECT_NAME":"STARLINK-1774","EPHEMERIS_TYPE":"0","CENTER_NAME":"EARTH","MEAN_MOTION_DDOT":"0.0000000000000","COUNTRY_CODE":"US","OBJECT_ID":"2020-073L","BSTAR":"-0.00042773000000","EPOCH":"2022-07-30T17:39:17.003808","NORAD_CAT_ID":"46680","SEMIMAJOR_AXIS":"6925.289","DECAY_DATE":null,"ECCENTRICITY":"0.00018170","TLE_LINE1":"1 46680U 20073L   22211.73561347 -.00006650  00000-0 -42773-3 0  9995","REF_FRAME":"TEME","SITE":"AFETR","RCS_SIZE":"LARGE","INCLINATION":"53.0564","MEAN_ANOMALY":"283.6803"},{"MEAN_ANOMALY":"286.9505","INCLINATION":"53.0551","RCS_SIZE":"LARGE","SITE":"AFETR","REF_FRAME":"TEME","TLE_LINE1":"1 46681U 20073M   22211.83881922  .00000248  00000-0  35584-4 0  9999","DECAY_DATE":null,"ECCENTRICITY":"0.00016240","NORAD_CAT_ID":"46681","SEMIMAJOR_AXIS":"6925.358","OBJECT_ID":"2020-073M","BSTAR":"0.00003558400000","EPOCH":"2022-07-30T20:07:53.980608","COUNTRY_CODE":"US","MEAN_MOTION_DDOT":"0.0000000000000","CENTER_NAME":"EARTH","OBJECT_NAME":"STARLINK-1775","EPHEMERIS_TYPE":"0","OBJECT_TYPE":"PAYLOAD","TLE_LINE2":"2 46681  53.0551  52.6801 0001624  73.1662 286.9505 15.06396846 98286","PERIAPSIS":"546.099","ARG_OF_PERICENTER":"73.1662","TIME_SYSTEM":"UTC","GP_ID":"209225842","FILE":"3525638","MEAN_MOTION":"15.06396846","REV_AT_EPOCH":"9828","PERIOD":"95.592","MEAN_ELEMENT_THEORY":"SGP4","MEAN_MOTION_DOT":"0.00000248","APOAPSIS":"548.348","RA_OF_ASC_NODE":"52.6801","CLASSIFICATION_TYPE":"U","LAUNCH_DATE":"2020-10-18","ELEMENT_SET_NO":"999"},{"PERIAPSIS":"546.050","ARG_OF_PERICENTER":"75.4832","TIME_SYSTEM":"UTC","FILE":"3525638","GP_ID":"209227094","MEAN_MOTION":"15.06401047","REV_AT_EPOCH":"9829","MEAN_ELEMENT_THEORY":"SGP4","PERIOD":"95.592","MEAN_MOTION_DOT":"0.00001695","APOAPSIS":"548.371","RA_OF_ASC_NODE":"52.5697","CLASSIFICATION_TYPE":"U","LAUNCH_DATE":"2020-10-18","ELEMENT_SET_NO":"999","MEAN_MOTION_DDOT":"0.0000000000000","COUNTRY_CODE":"US","CENTER_NAME":"EARTH","OBJECT_NAME":"STARLINK-1776","EPHEMERIS_TYPE":"0","OBJECT_TYPE":"PAYLOAD","TLE_LINE2":"2 46682  53.0570  52.5697 0001676  75.4832 284.6342 15.06401047 98296","TLE_LINE1":"1 46682U 20073N   22211.86462058  .00001695  00000-0  13269-3 0  9990","DECAY_DATE":null,"ECCENTRICITY":"0.00016760","NORAD_CAT_ID":"46682","SEMIMAJOR_AXIS":"6925.345","OBJECT_ID":"2020-073N","EPOCH":"2022-07-30T20:45:03.218112","BSTAR":"0.00013269000000","MEAN_ANOMALY":"284.6342","INCLINATION":"53.0570","RCS_SIZE":"LARGE","SITE":"AFETR","REF_FRAME":"TEME"},{"SITE":"AFETR","RCS_SIZE":"LARGE","INCLINATION":"53.0561","MEAN_ANOMALY":"261.0640","REF_FRAME":"TEME","OBJECT_ID":"2020-073Q","BSTAR":"0.00015783000000","EPOCH":"2022-07-30T18:52:55.832448","NORAD_CAT_ID":"46684","SEMIMAJOR_AXIS":"6925.348","DECAY_DATE":null,"ECCENTRICITY":"0.00013810","TLE_LINE1":"1 46684U 20073Q   22211.78675732  .00002070  00000-0  15783-3 0  9999","CENTER_NAME":"EARTH","COUNTRY_CODE":"US","MEAN_MOTION_DDOT":"0.0000000000000","TLE_LINE2":"2 46684  53.0561  37.9221 0001381  99.0505 261.0640 15.06400253 98490","OBJECT_TYPE":"PAYLOAD","OBJECT_NAME":"STARLINK-1780","EPHEMERIS_TYPE":"0","PERIOD":"95.592","MEAN_ELEMENT_THEORY":"SGP4","MEAN_MOTION_DOT":"0.00002070","FILE":"3525638","GP_ID":"209227345","MEAN_MOTION":"15.06400253","REV_AT_EPOCH":"9849","TIME_SYSTEM":"UTC","PERIAPSIS":"546.256","ARG_OF_PERICENTER":"99.0505","ELEMENT_SET_NO":"999","CLASSIFICATION_TYPE":"U","LAUNCH_DATE":"2020-10-18","APOAPSIS":"548.169","RA_OF_ASC_NODE":"37.9221"},{"REF_FRAME":"TEME","SITE":"AFETR","RCS_SIZE":"LARGE","MEAN_ANOMALY":"274.3922","INCLINATION":"53.0546","SEMIMAJOR_AXIS":"6925.337","NORAD_CAT_ID":"46685","BSTAR":"0.00006078500000","EPOCH":"2022-07-30T21:47:22.863264","OBJECT_ID":"2020-073R","TLE_LINE1":"1 46685U 20073R   22211.90790351  .00000624  00000-0  60785-4 0  9995","DECAY_DATE":null,"ECCENTRICITY":"0.00016310","TLE_LINE2":"2 46685  53.0546  52.3579 0001631  85.7254 274.3922 15.06403779 98296","EPHEMERIS_TYPE":"0","OBJECT_NAME":"STARLINK-1781","OBJECT_TYPE":"PAYLOAD","CENTER_NAME":"EARTH","COUNTRY_CODE":"US","MEAN_MOTION_DDOT":"0.0000000000000","CLASSIFICATION_TYPE":"U","LAUNCH_DATE":"2020-10-18","ELEMENT_SET_NO":"999","RA_OF_ASC_NODE":"52.3579","APOAPSIS":"548.331","GP_ID":"209226093","FILE":"3525638","MEAN_MOTION":"15.06403779","REV_AT_EPOCH":"9829","PERIOD":"95.592","MEAN_MOTION_DOT":"0.00000624","MEAN_ELEMENT_THEORY":"SGP4","ARG_OF_PERICENTER":"85.7254","PERIAPSIS":"546.072","TIME_SYSTEM":"UTC"},{"REF_FRAME":"TEME","MEAN_ANOMALY":"281.2264","INCLINATION":"53.0562","RCS_SIZE":"LARGE","SITE":"AFETR","TLE_LINE1":"1 46686U 20073S   22211.81944354  .00000483  00000-0  51353-4 0  9994","DECAY_DATE":null,"ECCENTRICITY":"0.00014770","NORAD_CAT_ID":"46686","SEMIMAJOR_AXIS":"6925.374","OBJECT_ID":"2020-073S","EPOCH":"2022-07-30T19:39:59.921856","BSTAR":"0.00005135300000","OBJECT_NAME":"STARLINK-1783","EPHEMERIS_TYPE":"0","OBJECT_TYPE":"PAYLOAD","TLE_LINE2":"2 46686  53.0562  52.7257 0001477  78.8891 281.2264 15.06391754 98284","MEAN_MOTION_DDOT":"0.0000000000000","COUNTRY_CODE":"US","CENTER_NAME":"EARTH","APOAPSIS":"548.262","RA_OF_ASC_NODE":"52.7257","CLASSIFICATION_TYPE":"U","LAUNCH_DATE":"2020-10-18","ELEMENT_SET_NO":"999","PERIAPSIS":"546.216","ARG_OF_PERICENTER":"78.8891","TIME_SYSTEM":"UTC","REV_AT_EPOCH":"9828","GP_ID":"209226343","FILE":"3525638","MEAN_MOTION":"15.06391754","PERIOD":"95.593","MEAN_ELEMENT_THEORY":"SGP4","MEAN_MOTION_DOT":"0.00000483"},{"RCS_SIZE":"LARGE","SITE":"AFETR","INCLINATION":"53.0577","MEAN_ANOMALY":"287.2660","REF_FRAME":"TEME","OBJECT_ID":"2020-073T","BSTAR":"0.00001850500000","EPOCH":"2022-07-30T21:02:57.810336","NORAD_CAT_ID":"46687","SEMIMAJOR_AXIS":"6925.346","DECAY_DATE":null,"ECCENTRICITY":"0.00015340","TLE_LINE1":"1 46687U 20073T   22211.87705799 -.00000006  00000-0  18505-4 0  9993","CENTER_NAME":"EARTH","MEAN_MOTION_DDOT":"0.0000000000000","COUNTRY_CODE":"US","TLE_LINE2":"2 46687  53.0577  17.5199 0001534  72.8497 287.2660 15.06400716 98785","OBJECT_TYPE":"PAYLOAD","OBJECT_NAME":"STARLINK-1784","EPHEMERIS_TYPE":"0","PERIOD":"95.592","MEAN_ELEMENT_THEORY":"SGP4","MEAN_MOTION_DOT":"-0.00000006","GP_ID":"209226594","FILE":"3525638","REV_AT_EPOCH":"9878","MEAN_MOTION":"15.06400716","TIME_SYSTEM":"UTC","PERIAPSIS":"546.149","ARG_OF_PERICENTER":"72.8497","ELEMENT_SET_NO":"999","LAUNCH_DATE":"2020-10-18","CLASSIFICATION_TYPE":"U","APOAPSIS":"548.274","RA_OF_ASC_NODE":"17.5199"},{"ECCENTRICITY":"0.00013580","DECAY_DATE":null,"TLE_LINE1":"1 46689U 20073V   22211.83513718  .00000087  00000-0  24736-4 0  9990","OBJECT_ID":"2020-073V","EPOCH":"2022-07-30T20:02:35.852352","BSTAR":"0.00002473600000","NORAD_CAT_ID":"46689","SEMIMAJOR_AXIS":"6925.367","INCLINATION":"53.0546","MEAN_ANOMALY":"283.4381","SITE":"AFETR","RCS_SIZE":"LARGE","REF_FRAME":"TEME","TIME_SYSTEM":"UTC","PERIAPSIS":"546.292","ARG_OF_PERICENTER":"76.6760","PERIOD":"95.593","MEAN_ELEMENT_THEORY":"SGP4","MEAN_MOTION_DOT":"0.00000087","GP_ID":"209226845","FILE":"3525638","MEAN_MOTION":"15.06393982","REV_AT_EPOCH":"9953","APOAPSIS":"548.172","RA_OF_ASC_NODE":"52.6985","ELEMENT_SET_NO":"999","LAUNCH_DATE":"2020-10-18","CLASSIFICATION_TYPE":"U","COUNTRY_CODE":"US","MEAN_MOTION_DDOT":"0.0000000000000","CENTER_NAME":"EARTH","OBJECT_TYPE":"PAYLOAD","OBJECT_NAME":"STARLINK-1788","EPHEMERIS_TYPE":"0","TLE_LINE2":"2 46689  53.0546  52.6985 0001358  76.6760 283.4381 15.06393982 99533"},{"RCS_SIZE":"LARGE","SITE":"AFETR","INCLINATION":"53.0571","MEAN_ANOMALY":"250.4420","REF_FRAME":"TEME","OBJECT_ID":"2020-073W","BSTAR":"0.00003888800000","EPOCH":"2022-07-30T18:27:42.545088","NORAD_CAT_ID":"46690","SEMIMAJOR_AXIS":"6925.343","DECAY_DATE":null,"ECCENTRICITY":"0.00013280","TLE_LINE1":"1 46690U 20073W   22211.76924242  .00000298  00000-0  38888-4 0  9999","CENTER_NAME":"EARTH","MEAN_MOTION_DDOT":"0.0000000000000","COUNTRY_CODE":"US","TLE_LINE2":"2 46690  53.0571  27.9969 0001328 109.6713 250.4420 15.06401921 98622","OBJECT_TYPE":"PAYLOAD","OBJECT_NAME":"STARLINK-1789","EPHEMERIS_TYPE":"0","PERIOD":"95.592","MEAN_MOTION_DOT":"0.00000298","MEAN_ELEMENT_THEORY":"SGP4","GP_ID":"209225593","FILE":"3525638","MEAN_MOTION":"15.06401921","REV_AT_EPOCH":"9862","TIME_SYSTEM":"UTC","PERIAPSIS":"546.288","ARG_OF_PERICENTER":"109.6713","ELEMENT_SET_NO":"999","LAUNCH_DATE":"2020-10-18","CLASSIFICATION_TYPE":"U","APOAPSIS":"548.127","RA_OF_ASC_NODE":"27.9969"}];
